FLOCK 4G-33             
1 62685U 25009CE  26068.76487529  .00008795  00000+0  36403-3 0  9990
2 62685  97.3987 149.8529 0004605 331.7862  28.3125 15.24167580 63655
KUIPER-00066            
1 64526U 25134AC  26068.57128034  .00019245  00000+0  81918-3 0  9990
2 64526  51.8707 184.5707 0001383 335.7744  24.3171 15.23000730 40747
