[{"OBJECT_NAME":"FLOCK 4G-33","OBJECT_ID":"2025-009CE","EPOCH":"2026-03-09T18:21:25.225056","MEAN_MOTION":15.2416758,"ECCENTRICITY":0.00046054,"INCLINATION":97.3987,"RA_OF_ASC_NODE":149.8529,"ARG_OF_PERICENTER":331.7862,"MEAN_ANOMALY":28.3125,"EPHEMERIS_TYPE":0,"CLASSIFICATION_TYPE":"U","NORAD_CAT_ID":62685,"ELEMENT_SET_NO":999,"REV_AT_EPOCH":6365,"BSTAR":0.00036403068,"MEAN_MOTION_DOT":8.795e-5,"MEAN_MOTION_DDOT":0},{"OBJECT_NAME":"KUIPER-00066","OBJECT_ID":"2025-134AC","EPOCH":"2026-03-09T13:42:38.621376","MEAN_MOTION":15.2300073,"ECCENTRICITY":0.0001383,"INCLINATION":51.8707,"RA_OF_ASC_NODE":184.5707,"ARG_OF_PERICENTER":335.7744,"MEAN_ANOMALY":24.3171,"EPHEMERIS_TYPE":0,"CLASSIFICATION_TYPE":"U","NORAD_CAT_ID":64526,"ELEMENT_SET_NO":999,"REV_AT_EPOCH":4074,"BSTAR":0.00081918,"MEAN_MOTION_DOT":0.00019245,"MEAN_MOTION_DDOT":0}]
